{
    "links": {
        "self": "http://www.neowsapp.com/rest/v1/neo/3843063?api_key=iIulBulltgU6a56xZRHN4H3l9WmuAYTsLGpBGhQ2"
    },
    "id": "3843063",
    "neo_reference_id": "3843063",
    "name": "(2019 MT2)",
    "designation": "2019 MT2",
    "nasa_jpl_url": "http://ssd.jpl.nasa.gov/sbdb.cgi?sstr=3843063",
    "absolute_magnitude_h": 26.4,
    "estimated_diameter": {
        "kilometers": {
            "estimated_diameter_min": 0.0139493823,
            "estimated_diameter_max": 0.0311917671
        },
        "meters": {
            "estimated_diameter_min": 13.9493822934,
            "estimated_diameter_max": 31.1917670523
        },
        "miles": {
            "estimated_diameter_min": 0.0086677416,
            "estimated_diameter_max": 0.0193816595
        },
        "feet": {
            "estimated_diameter_min": 45.7656914036,
            "estimated_diameter_max": 102.3351970157
        }
    },
    "is_potentially_hazardous_asteroid": false,
    "close_approach_data": [
        {
            "close_approach_date": "2019-07-08",
            "close_approach_date_full": "2019-Jul-08 09:17",
            "epoch_date_close_approach": 1562577420000,
            "relative_velocity": {
                "kilometers_per_second": "11.8908943531",
                "kilometers_per_hour": "42807.2196711002",
                "miles_per_hour": "26598.7415784123"
            },
            "miss_distance": {
                "astronomical": "0.0088982762",
                "lunar": "3.4614294418",
                "kilometers": "1331163.166191694",
                "miles": "827146.4361816172"
            },
            "orbiting_body": "Moon"
        },
        {
            "close_approach_date": "2019-07-08",
            "close_approach_date_full": "2019-Jul-08 13:15",
            "epoch_date_close_approach": 1562591700000,
            "relative_velocity": {
                "kilometers_per_second": "11.0391403766",
                "kilometers_per_hour": "39740.9053556347",
                "miles_per_hour": "24693.4531083387"
            },
            "miss_distance": {
                "astronomical": "0.0111747977",
                "lunar": "4.3469963053",
                "kilometers": "1671725.933600899",
                "miles": "1038762.3270904462"
            },
            "orbiting_body": "Earth"
        }
    ],
    "orbital_data": {
        "orbit_id": "7",
        "orbit_determination_date": "2019-07-27 14:02:25",
        "first_observation_date": "2019-06-30",
        "last_observation_date": "2019-07-07",
        "data_arc_in_days": 7,
        "observations_used": 44,
        "orbit_uncertainty": "7",
        "minimum_orbit_intersection": ".00104039",
        "jupiter_tisserand_invariant": "3.692",
        "epoch_osculation": "2459000.5",
        "eccentricity": ".5172303090685741",
        "semi_major_axis": "1.956821353402143",
        "inclination": "10.19432021605715",
        "ascending_node_longitude": "104.5146488465969",
        "orbital_period": "999.8277703422292",
        "perihelion_distance": ".944694039989967",
        "perihelion_argument": "217.1049160651759",
        "aphelion_distance": "2.968948666814319",
        "perihelion_time": "2458701.829809776998",
        "mean_anomaly": "107.539790021513",
        "mean_motion": ".3600620133573368",
        "equinox": "J2000",
        "orbit_class": {
            "orbit_class_type": "APO",
            "orbit_class_description": "Near-Earth asteroid orbits which cross the Earth’s orbit similar to that of 1862 Apollo",
            "orbit_class_range": "a (semi-major axis) > 1.0 AU; q (perihelion) < 1.017 AU"
        }
    },
    "is_sentry_object": false
}